0 GLOBALSTAR M057
1 25943U 99058A   23247.55400597 -.00000104  00000-0 -10298-3 0  9997
2 25943  52.0002  37.4359 0003413 109.0358 251.0861 12.24771159 87087
0 GLOBALSTAR M059
1 25944U 99058B   23247.77714241 -.00000117  00000-0 -38240-3 0  9997
2 25944  52.0007 169.4027 0000705  66.7905 319.3458 11.99952383 84593
0 GLOBALSTAR M056
1 25945U 99058C   23248.13556086 -.00000093  00000-0 -66632-4 0  9990
2 25945  51.9952 187.1216 0001163 343.2634  28.2439 12.04767793 84196
0 GLOBALSTAR M031
1 25946U 99058D   23247.56938894 -.00000150  00000-0 -60455-3 0  9998
2 25946  51.9951 119.9692 0001307 323.4521  40.4058 12.15994875 85270
0 GLOBALSTAR M039
1 25961U 99062A   23247.81373373 -.00000079  00000-0  13778-3 0  9998
2 25961  51.9839  92.5692 0002962   1.2966 358.7907 12.62269371 97987
0 GLOBALSTAR M034
1 25962U 99062B   23247.76403877 -.00000077  00000-0  57337-4 0  9994
2 25962  51.9849 264.6646 0014080 250.9675 280.5866 11.79414610 61515
0 GLOBALSTAR M029
1 25963U 99062C   23247.73816319 -.00000091  00000-0 -63058-4 0  9995
2 25963  51.9809  58.0979 0001794 286.0319  86.8939 11.99867105 90972
